STARLINK-4384           
1 53218U 22084AF  26116.72023190  .00003235  00000+0  22836-3 0  9991
2 53218  97.5703 178.6148 0000626 242.4346 117.6817 15.05633613207133
STARLINK-4373           
1 53219U 22084AG  26116.74791321 -.00002370  00000+0 -16008-3 0  9997
2 53219  97.5697 178.5514 0001291 116.3410 243.7950 15.05655749206617
STARLINK-4363           
1 53220U 22084AH  26116.71333074  .00002294  00000+0  16316-3 0  9998
2 53220  97.5713 177.3894 0000552 110.9870 249.1416 15.05639992207053
STARLINK-4377           
1 53221U 22084AJ  26116.74105154 -.00002047  00000+0 -13782-3 0  9990
2 53221  97.5716 177.4890 0001177 122.5550 237.5791 15.05632034206542
STARLINK-4356           
1 53224U 22084AM  26116.78255439  .00001128  00000+0  82340-4 0  9993
2 53224  97.5682 177.4417 0000819  99.8046 260.3274 15.05649719206548
STARLINK-4358           
1 53225U 22084AN  26116.75067929 -.00000981  00000+0 -63848-4 0  9996
2 53225  97.5687 178.5304 0001448 159.5948 200.5337 15.05651197206612
STARLINK-4359           
1 53226U 22084AP  26116.69948921 -.00000416  00000+0 -24648-4 0  9998
2 53226  97.5684 177.3933 0001379 102.9615 257.1766 15.05645477206530
STARLINK-4366           
1 53227U 22084AQ  26116.73131090 -.00020443  00000+0 -14145-2 0  9996
2 53227  97.5770 178.5354 0000983 135.6886 224.4419 15.05707295206618
STARLINK-4365           
1 53228U 22084AR  26116.72441974 -.00001368  00000+0 -90681-4 0  9997
2 53228  97.5737 177.5060 0000867 167.7158 192.4090 15.05643031206542
STARLINK-4367           
1 53229U 22084AS  26116.93621544  .00000518  00000+0  40065-4 0  9999
2 53229  97.5681 178.7355 0001028 130.8604 229.2712 15.05645282206649
STARLINK-4364           
1 53230U 22084AT  26116.71472104  .00031926  00000+0  22156-2 0  9999
2 53230  97.5706 178.5742 0000760  63.2821 296.8484 15.05502548206619
STARLINK-4370           
1 53231U 22084AU  26116.72576174 -.00001339  00000+0 -88598-4 0  9994
2 53231  97.5701 178.5460 0001038 128.6729 231.4591 15.05657131206617
STARLINK-4371           
1 53232U 22084AV  26116.76319820  .00000288  00000+0  24150-4 0  9996
2 53232  97.5722 177.4427 0000909 110.7934 249.3390 15.05639285206545
STARLINK-4372           
1 53233U 22084AW  26116.75486376 -.00001937  00000+0 -13006-3 0  9998
2 53233  97.5658 177.4421 0000844 137.1359 222.9934 15.05656839206545
STARLINK-4368           
1 53234U 22084AX  26116.91667824  .00243280  00000+0  15359-1 0  9994
2 53234  97.6003 177.6134 0001914  85.6142  66.8362 15.07851892  5770
STARLINK-4056           
1 53242U 22086A   26116.92642344 -.00000360  00000+0 -45458-5 0  9995
2 53242  53.2182 342.5670 0001495  96.1983 263.9179 15.08831432208597
STARLINK-4047           
1 53243U 22086B   26116.83208336  .00000005  00000+0  18414-4 0  9990
2 53243  53.2186 347.6928 0001572  91.1297 268.9876 15.08843644208534
STARLINK-4125           
1 53244U 22086C   26116.92413415 -.00002075  00000+0 -11234-3 0  9990
2 53244  53.2183 347.6653 0001724  93.7331 266.3859 15.08839104208521
STARLINK-4131           
1 53246U 22086E   26116.85420068 -.00000343  00000+0 -34720-5 0  9999
2 53246  53.2184 347.9026 0001782 106.7262 253.3926 15.08835832207404
STARLINK-4061           
1 53247U 22086F   26116.94116360  .00000298  00000+0  36806-4 0  9990
2 53247  53.2182 342.6927 0001477  87.4649 272.6512 15.08839271208597
STARLINK-4135           
1 53248U 22086G   26116.86388140 -.00001666  00000+0 -86576-4 0  9990
2 53248  53.2192 342.9653 0001662  99.0186 261.0994 15.08841292208580
STARLINK-4128           
1 53249U 22086H   26116.93336059  .00000224  00000+0  32190-4 0  9991
2 53249  53.2185 337.5555 0001487  89.6656 270.4506 15.08838833208362
STARLINK-4059           
1 53250U 22086J   26116.93608015  .00000044  00000+0  20880-4 0  9990
2 53250  53.2180 337.5343 0001416  90.9242 269.1913 15.08839930208357
STARLINK-4129           
1 53251U 22086K   26116.85880718 -.00001890  00000+0 -10071-3 0  9996
2 53251  53.2166 337.8780 0001555  85.7441 274.3729 15.08827342208332
STARLINK-4132           
1 53252U 22086L   26116.92871262  .00000852  00000+0  71595-4 0  9993
2 53252  53.2185 337.5178 0001316  86.3697 273.7445 15.08839127208362
STARLINK-4133           
1 53253U 22086M   26116.92136490 -.00000885  00000+0 -37504-4 0  9991
2 53253  53.2180 337.6014 0001990  95.6603 264.4616 15.08840377208340
STARLINK-4134           
1 53254U 22086N   26116.92969428 -.00000895  00000+0 -38136-4 0  9990
2 53254  53.2192 337.5731 0001535  77.5737 282.5427 15.08829897208368
STARLINK-4142           
1 53255U 22086P   26116.84776258  .00000073  00000+0  22680-4 0  9992
2 53255  53.2188 337.9342 0001512 104.0529 256.0632 15.08832969208331
STARLINK-4147           
1 53256U 22086Q   26116.85144286 -.00000267  00000+0  12882-5 0  9994
2 53256  53.2187 337.9135 0001505  89.7873 270.3291 15.08836369208332
STARLINK-4144           
1 53257U 22086R   26116.83671894  .00000082  00000+0  23263-4 0  9991
2 53257  53.2184 337.9823 0001540  97.9912 262.1256 15.08834509208332
STARLINK-4127           
1 53258U 22086S   26116.84408067 -.00000482  00000+0 -12179-4 0  9993
2 53258  53.2176 337.9478 0001367  96.8749 263.2398 15.08833624208339
STARLINK-4140           
1 53259U 22086T   26116.93235938  .00000751  00000+0  65291-4 0  9999
2 53259  53.2183 337.1939 0001713  86.1120 274.0068 15.08833437208350
STARLINK-4062           
1 53261U 22086V   26116.89192015  .00000125  00000+0  25920-4 0  9995
2 53261  53.2184 337.7340 0001197  90.6391 269.4738 15.08834915208345
STARLINK-4085           
1 53262U 22086W   26116.83303940  .00000016  00000+0  19092-4 0  9993
2 53262  53.2189 337.9982 0001612 101.2414 258.8759 15.08837315208333
STARLINK-4130           
1 53263U 22086X   26116.88822995  .00001450  00000+0  10915-3 0  9992
2 53263  53.2182 337.7511 0001707 112.8507 247.2665 15.08846895208341
STARLINK-3950           
1 53264U 22086Y   26116.82936079 -.00002710  00000+0 -15226-3 0  9998
2 53264  53.2184 338.0165 0001711  84.5246 275.5941 15.08831400208339
STARLINK-4097           
1 53265U 22086Z   26116.88088268 -.00000752  00000+0 -29162-4 0  9992
2 53265  53.2186 337.7824 0001212  90.2106 269.9025 15.08834560208346
STARLINK-4058           
1 53266U 22086AA  26116.88456835  .00005236  00000+0  34670-3 0  9991
2 53266  53.2180 337.7671 0001793  88.4205 271.6993 15.08852475208343
STARLINK-4060           
1 53267U 22086AB  26116.87351871  .00000579  00000+0  54463-4 0  9993
2 53267  53.2183 337.8166 0001364  88.8042 271.3106 15.08837914208348
STARLINK-4109           
1 53268U 22086AC  26116.87720771  .00002287  00000+0  16170-3 0  9993
2 53268  53.2188 337.8002 0001311 127.6724 232.4387 15.08841376208340
STARLINK-4122           
1 53272U 22086AG  26116.87075984 -.00000421  00000+0 -83777-5 0  9996
2 53272  53.2178 327.8265 0001464  91.1220 268.9940 15.08836100208471
STARLINK-4051           
1 53273U 22086AH  26116.85235591  .00001622  00000+0  12000-3 0  9998
2 53273  53.2174 327.9101 0001354  86.8774 273.2374 15.08837956208460
STARLINK-4050           
1 53274U 22086AJ  26116.86339855 -.00000421  00000+0 -83532-5 0  9996
2 53274  53.2185 327.8596 0001502  90.6798 269.4366 15.08837413208471
STARLINK-4179           
1 53275U 22086AK  26116.84867932  .00000089  00000+0  23702-4 0  9997
2 53275  53.2175 327.9258 0001409  90.7183 269.3971 15.08839132208462
STARLINK-4174           
1 53276U 22086AL  26116.85603592 -.00000122  00000+0  10440-4 0  9993
2 53276  53.2178 327.8928 0001629  90.8489 269.2690 15.08843293208463
STARLINK-4178           
1 53277U 22086AM  26116.84132289  .00000130  00000+0  26269-4 0  9997
2 53277  53.2177 327.9880 0001388  86.9407 273.1744 15.08839996208468
STARLINK-4180           
1 53278U 22086AN  26116.84500105 -.00001213  00000+0 -58164-4 0  9998
2 53278  53.2172 327.9412 0001574  93.4491 266.6681 15.08835063208466
STARLINK-4169           
1 53280U 22086AQ  26116.83254074  .00000538  00000+0  51909-4 0  9998
2 53280  53.2182 282.6731 0001408  91.2636 268.8517 15.08835605209100
STARLINK-4164           
1 53282U 22086AS  26116.83764287  .00000127  00000+0  26060-4 0  9996
2 53282  53.2186 327.9757 0001625  89.9713 270.1466 15.08837863208463
STARLINK-4175           
1 53283U 22086AT  26116.89284454 -.00001284  00000+0 -62595-4 0  9996
2 53283  53.2179 327.7248 0001292 104.0111 256.1025 15.08836306208477
STARLINK-4173           
1 53285U 22086AV  26116.88177454  .00000483  00000+0  48437-4 0  9995
2 53285  53.2177 327.7785 0001625  88.3484 271.7695 15.08846519208462
STARLINK-4165           
1 53286U 22086AW  26116.85968054 -.00000124  00000+0  10340-4 0  9992
2 53286  53.2176 327.5685 0001784  90.1205 269.9992 15.08841021208469
STARLINK-4107           
1 53287U 22086AX  26116.87444092 -.00000188  00000+0  62767-5 0  9997
2 53287  53.2172 327.8103 0001370  90.2724 269.8425 15.08832820208469
STARLINK-4162           
1 53288U 22086AY  26116.88548057 -.00001564  00000+0 -80180-4 0  9993
2 53288  53.2175 327.7623 0001255  84.7676 275.3459 15.08843066208468
STARLINK-4176           
1 53289U 22086AZ  26116.85099558 -.00000913  00000+0 -39272-4 0  9991
2 53289  53.2183 323.0587 0001406  98.1016 262.0136 15.08837765208522
STARLINK-4149           
1 53290U 22086BA  26116.87811644 -.00002830  00000+0 -15981-3 0  9993
2 53290  53.2175 327.7991 0001368 125.7900 234.3219 15.08838287208468
STARLINK-4166           
1 53291U 22086BB  26116.88407589  .00003939  00000+0  26544-3 0  9990
2 53291  53.2173 322.5595 0001267  88.8472 271.2666 15.08838098208535
STARLINK-4159           
1 53292U 22086BC  26116.88918625  .00001040  00000+0  83422-4 0  9999
2 53292  53.2178 327.9281 0001712  85.2785 274.8403 15.08850263208463
STARLINK-4148           
1 53293U 22086BD  26116.84223742 -.00000030  00000+0  16176-4 0  9996
2 53293  53.2181 317.9450 0001289  92.8494 267.2646 15.08839844208596
